start=new Date('2022-01-23T00:00:00.000Z').valueOf();
sats=[{"LAUNCH_DATE":"2019-05-24","INCLINATION":"52.9812","EPOCH":"2022-01-22T22:01:54.387840","OBJECT_TYPE":"PAYLOAD","MEAN_ANOMALY":"167.9461","REF_FRAME":"TEME","NORAD_CAT_ID":"44257","TLE_LINE2":"2 44257  52.9812 255.3769 0011367 192.1923 167.9461 15.98488589150121","RCS_SIZE":"LARGE","ECCENTRICITY":"0.00113670","GP_ID":"194400351","TIME_SYSTEM":"UTC","ARG_OF_PERICENTER":"192.1923","SEMIMAJOR_AXIS":"6656.748","PERIAPSIS":"271.047","MEAN_ELEMENT_THEORY":"SGP4","TLE_LINE1":"1 44257U 19029Y   22022.91799060  .01619949  14984-2  34110-2 0  9990","BSTAR":"0.00341100000000","MEAN_MOTION_DDOT":"0.0014984000000","DECAY_DATE":null,"REV_AT_EPOCH":"15012","CENTER_NAME":"EARTH","CLASSIFICATION_TYPE":"U","APOAPSIS":"286.180","OBJECT_ID":"2019-029Y","RA_OF_ASC_NODE":"255.3769","MEAN_MOTION_DOT":"0.01619949","COUNTRY_CODE":"US","MEAN_MOTION":"15.98488589","EPHEMERIS_TYPE":"0","SITE":"AFETR","ELEMENT_SET_NO":"999","FILE":"3280176","PERIOD":"90.085","OBJECT_NAME":"STARLINK-43"},{"MEAN_MOTION":"15.06411861","COUNTRY_CODE":"US","RA_OF_ASC_NODE":"332.3077","MEAN_MOTION_DOT":"0.00002298","CENTER_NAME":"EARTH","APOAPSIS":"548.511","OBJECT_ID":"2020-012J","CLASSIFICATION_TYPE":"U","REV_AT_EPOCH":"10762","OBJECT_NAME":"STARLINK-1224","PERIOD":"95.591","ELEMENT_SET_NO":"999","SITE":"AFETR","FILE":"3280062","EPHEMERIS_TYPE":"0","ECCENTRICITY":"0.00019260","TLE_LINE2":"2 45186  53.0550 332.3077 0001926  62.3797 297.7388 15.06411861107624","NORAD_CAT_ID":"45186","REF_FRAME":"TEME","RCS_SIZE":"LARGE","LAUNCH_DATE":"2020-02-17","OBJECT_TYPE":"PAYLOAD","MEAN_ANOMALY":"297.7388","EPOCH":"2022-01-22T13:52:03.851904","INCLINATION":"53.0550","TLE_LINE1":"1 45186U 20012J   22022.57782236  .00002298  00000-0  17308-3 0  9990","DECAY_DATE":null,"MEAN_MOTION_DDOT":"0.0000000000000","BSTAR":"0.00017308000000","PERIAPSIS":"545.843","MEAN_ELEMENT_THEORY":"SGP4","SEMIMAJOR_AXIS":"6925.312","ARG_OF_PERICENTER":"62.3797","GP_ID":"194393666","TIME_SYSTEM":"UTC"},{"ECCENTRICITY":"0.00013910","TLE_LINE2":"2 45532  53.0548  33.5573 0001391  81.3597 278.7550 15.06408015 97896","REF_FRAME":"TEME","NORAD_CAT_ID":"45532","RCS_SIZE":"LARGE","LAUNCH_DATE":"2020-04-22","MEAN_ANOMALY":"278.7550","OBJECT_TYPE":"PAYLOAD","INCLINATION":"53.0548","EPOCH":"2022-01-22T07:11:19.690080","TLE_LINE1":"1 45532U 20025B   22022.29953345  .00002317  00000-0  17433-3 0  9990","DECAY_DATE":null,"MEAN_MOTION_DDOT":"0.0000000000000","BSTAR":"0.00017433000000","PERIAPSIS":"546.226","MEAN_ELEMENT_THEORY":"SGP4","SEMIMAJOR_AXIS":"6925.324","ARG_OF_PERICENTER":"81.3597","GP_ID":"194392452","TIME_SYSTEM":"UTC","MEAN_MOTION":"15.06408015","COUNTRY_CODE":"US","RA_OF_ASC_NODE":"33.5573","MEAN_MOTION_DOT":"0.00002317","CENTER_NAME":"EARTH","OBJECT_ID":"2020-025B","APOAPSIS":"548.152","CLASSIFICATION_TYPE":"U","REV_AT_EPOCH":"9789","OBJECT_NAME":"STARLINK-1338","PERIOD":"95.592","ELEMENT_SET_NO":"999","SITE":"AFETR","FILE":"3280062","EPHEMERIS_TYPE":"0"},{"TLE_LINE2":"2 45537  53.0036   3.3439 0001127  35.6423 324.4645 15.16799677 98282","REF_FRAME":"TEME","NORAD_CAT_ID":"45537","RCS_SIZE":"LARGE","LAUNCH_DATE":"2020-04-22","OBJECT_TYPE":"PAYLOAD","MEAN_ANOMALY":"324.4645","EPOCH":"2022-01-22T03:47:57.695424","INCLINATION":"53.0036","ECCENTRICITY":"0.00011270","SEMIMAJOR_AXIS":"6893.657","ARG_OF_PERICENTER":"35.6423","GP_ID":"194392202","TIME_SYSTEM":"UTC","TLE_LINE1":"1 45537U 20025G   22022.15830666  .00012422  00000-0  63925-3 0  9995","MEAN_MOTION_DDOT":"0.0000000000000","DECAY_DATE":null,"BSTAR":"0.00063925000000","MEAN_ELEMENT_THEORY":"SGP4","PERIAPSIS":"514.745","CENTER_NAME":"EARTH","APOAPSIS":"516.299","OBJECT_ID":"2020-025G","CLASSIFICATION_TYPE":"U","REV_AT_EPOCH":"9828","MEAN_MOTION":"15.16799677","COUNTRY_CODE":"US","RA_OF_ASC_NODE":"3.3439","MEAN_MOTION_DOT":"0.00012422","ELEMENT_SET_NO":"999","SITE":"AFETR","FILE":"3280062","EPHEMERIS_TYPE":"0","OBJECT_NAME":"STARLINK-1353","PERIOD":"94.937"},{"BSTAR":"0.00022674000000","DECAY_DATE":null,"MEAN_MOTION_DDOT":"0.0000000000000","TLE_LINE1":"1 45550U 20025V   22022.29859262  .00003097  00000-0  22674-3 0  9992","PERIAPSIS":"546.158","MEAN_ELEMENT_THEORY":"SGP4","ARG_OF_PERICENTER":"80.3587","SEMIMAJOR_AXIS":"6925.364","TIME_SYSTEM":"UTC","GP_ID":"194404750","ECCENTRICITY":"0.00015470","RCS_SIZE":"LARGE","NORAD_CAT_ID":"45550","REF_FRAME":"TEME","TLE_LINE2":"2 45550  53.0548  33.5696 0001547  80.3587 279.7577 15.06394919 97294","INCLINATION":"53.0548","EPOCH":"2022-01-22T07:09:58.402368","OBJECT_TYPE":"PAYLOAD","MEAN_ANOMALY":"279.7577","LAUNCH_DATE":"2020-04-22","OBJECT_NAME":"STARLINK-1390","PERIOD":"95.592","FILE":"3280352","SITE":"AFETR","ELEMENT_SET_NO":"999","EPHEMERIS_TYPE":"0","COUNTRY_CODE":"US","MEAN_MOTION":"15.06394919","MEAN_MOTION_DOT":"0.00003097","RA_OF_ASC_NODE":"33.5696","CLASSIFICATION_TYPE":"U","APOAPSIS":"548.300","OBJECT_ID":"2020-025V","CENTER_NAME":"EARTH","REV_AT_EPOCH":"9729"},{"ECCENTRICITY":"0.00016790","OBJECT_TYPE":"PAYLOAD","MEAN_ANOMALY":"295.0075","EPOCH":"2022-01-22T05:13:12.946080","INCLINATION":"53.0535","LAUNCH_DATE":"2020-04-22","RCS_SIZE":"LARGE","TLE_LINE2":"2 45582  53.0535   3.9221 0001679  65.1089 295.0075 15.06400421 97698","REF_FRAME":"TEME","NORAD_CAT_ID":"45582","MEAN_ELEMENT_THEORY":"SGP4","PERIAPSIS":"546.050","DECAY_DATE":null,"MEAN_MOTION_DDOT":"0.0000000000000","BSTAR":"-0.00003676100000","TLE_LINE1":"1 45582U 20025BD  22022.21751095 -.00000829  00000-0 -36761-4 0  9999","TIME_SYSTEM":"UTC","GP_ID":"194399642","SEMIMAJOR_AXIS":"6925.347","ARG_OF_PERICENTER":"65.1089","MEAN_MOTION_DOT":"-0.00000829","RA_OF_ASC_NODE":"3.9221","MEAN_MOTION":"15.06400421","COUNTRY_CODE":"US","REV_AT_EPOCH":"9769","APOAPSIS":"548.375","OBJECT_ID":"2020-025BD","CLASSIFICATION_TYPE":"U","CENTER_NAME":"EARTH","PERIOD":"95.592","OBJECT_NAME":"STARLINK-1337","EPHEMERIS_TYPE":"0","FILE":"3280121","ELEMENT_SET_NO":"999","SITE":"AFETR"},{"OBJECT_NAME":"STARLINK-1365","PERIOD":"95.592","ELEMENT_SET_NO":"999","SITE":"AFETR","FILE":"3280062","EPHEMERIS_TYPE":"0","MEAN_MOTION":"15.06404560","COUNTRY_CODE":"US","RA_OF_ASC_NODE":"32.9495","MEAN_MOTION_DOT":"0.00001430","CENTER_NAME":"EARTH","OBJECT_ID":"2020-025BM","APOAPSIS":"548.225","CLASSIFICATION_TYPE":"U","REV_AT_EPOCH":"9792","TLE_LINE1":"1 45590U 20025BM  22022.43592020  .00001430  00000-0  11486-3 0  9996","MEAN_MOTION_DDOT":"0.0000000000000","DECAY_DATE":null,"BSTAR":"0.00011486000000","MEAN_ELEMENT_THEORY":"SGP4","PERIAPSIS":"546.174","SEMIMAJOR_AXIS":"6925.335","ARG_OF_PERICENTER":"67.2858","GP_ID":"194392709","TIME_SYSTEM":"UTC","ECCENTRICITY":"0.00014810","TLE_LINE2":"2 45590  53.0556  32.9495 0001481  67.2858 292.8288 15.06404560 97928","REF_FRAME":"TEME","NORAD_CAT_ID":"45590","RCS_SIZE":"LARGE","LAUNCH_DATE":"2020-04-22","OBJECT_TYPE":"PAYLOAD","MEAN_ANOMALY":"292.8288","EPOCH":"2022-01-22T10:27:43.505280","INCLINATION":"53.0556"},{"RCS_SIZE":"LARGE","REF_FRAME":"TEME","NORAD_CAT_ID":"45670","TLE_LINE2":"2 45670  53.0559 324.4204 0001764  62.2631 297.8537 15.06394271 91816","EPOCH":"2022-01-22T02:34:00.647616","INCLINATION":"53.0559","OBJECT_TYPE":"PAYLOAD","MEAN_ANOMALY":"297.8537","LAUNCH_DATE":"2020-06-04","ECCENTRICITY":"0.00017640","ARG_OF_PERICENTER":"62.2631","SEMIMAJOR_AXIS":"6925.366","TIME_SYSTEM":"UTC","GP_ID":"194393218","BSTAR":"0.00006381600000","MEAN_MOTION_DDOT":"0.0000000000000","DECAY_DATE":null,"TLE_LINE1":"1 45670U 20035P   22022.10695194  .00000669  00000-0  63816-4 0  9994","MEAN_ELEMENT_THEORY":"SGP4","PERIAPSIS":"546.009","CLASSIFICATION_TYPE":"U","OBJECT_ID":"2020-035P","APOAPSIS":"548.453","CENTER_NAME":"EARTH","REV_AT_EPOCH":"9181","COUNTRY_CODE":"US","MEAN_MOTION":"15.06394271","MEAN_MOTION_DOT":"0.00000669","RA_OF_ASC_NODE":"324.4204","FILE":"3280062","SITE":"AFETR","ELEMENT_SET_NO":"999","EPHEMERIS_TYPE":"0","OBJECT_NAME":"STARLINK-1453","PERIOD":"95.593"},{"SEMIMAJOR_AXIS":"6925.359","ARG_OF_PERICENTER":"56.8141","TIME_SYSTEM":"UTC","GP_ID":"194393219","DECAY_DATE":null,"MEAN_MOTION_DDOT":"0.0000000000000","BSTAR":"-0.00005910100000","TLE_LINE1":"1 45678U 20035X   22022.10510229 -.00001162  00000-0 -59101-4 0  9990","PERIAPSIS":"546.014","MEAN_ELEMENT_THEORY":"SGP4","RCS_SIZE":"LARGE","TLE_LINE2":"2 45678  53.0545 344.4237 0001747  56.8141 303.3015 15.06396633 91620","REF_FRAME":"TEME","NORAD_CAT_ID":"45678","OBJECT_TYPE":"PAYLOAD","MEAN_ANOMALY":"303.3015","EPOCH":"2022-01-22T02:31:20.837856","INCLINATION":"53.0545","LAUNCH_DATE":"2020-06-04","ECCENTRICITY":"0.00017470","FILE":"3280062","ELEMENT_SET_NO":"999","SITE":"AFETR","EPHEMERIS_TYPE":"0","OBJECT_NAME":"STARLINK-1393","PERIOD":"95.592","APOAPSIS":"548.434","OBJECT_ID":"2020-035X","CLASSIFICATION_TYPE":"U","CENTER_NAME":"EARTH","REV_AT_EPOCH":"9162","MEAN_MOTION":"15.06396633","COUNTRY_CODE":"US","MEAN_MOTION_DOT":"-0.00001162","RA_OF_ASC_NODE":"344.4237"},{"EPOCH":"2022-01-22T13:00:18.269568","INCLINATION":"53.0524","MEAN_ANOMALY":"278.3857","OBJECT_TYPE":"PAYLOAD","LAUNCH_DATE":"2020-06-13","RCS_SIZE":"LARGE","REF_FRAME":"TEME","NORAD_CAT_ID":"45744","TLE_LINE2":"2 45744  53.0524 162.4699 0001789  81.7335 278.3857 15.06389838 89035","ECCENTRICITY":"0.00017890","TIME_SYSTEM":"UTC","GP_ID":"194392975","ARG_OF_PERICENTER":"81.7335","SEMIMAJOR_AXIS":"6925.380","PERIAPSIS":"546.006","MEAN_ELEMENT_THEORY":"SGP4","BSTAR":"0.00002638200000","DECAY_DATE":null,"MEAN_MOTION_DDOT":"0.0000000000000","TLE_LINE1":"1 45744U 20038Q   22022.54187812  .00000111  00000-0  26382-4 0  9999","REV_AT_EPOCH":"8903","CLASSIFICATION_TYPE":"U","APOAPSIS":"548.484","OBJECT_ID":"2020-038Q","CENTER_NAME":"EARTH","MEAN_MOTION_DOT":"0.00000111","RA_OF_ASC_NODE":"162.4699","COUNTRY_CODE":"US","MEAN_MOTION":"15.06389838","EPHEMERIS_TYPE":"0","FILE":"3280062","SITE":"AFETR","ELEMENT_SET_NO":"999","PERIOD":"95.593","OBJECT_NAME":"STARLINK-1500"}];
